{
  "type": "FeatureCollection",
  "features": [
    {
      "type": "Feature",
      "properties": {
        "norad_id": 59600,
        "name": "GSAT0227 (GALILEO 30)",
        "group": "galileo",
        "lat": -53.64651206658363,
        "lon": 34.348400050908836,
        "alt_km": 23237.39663503288,
        "timestamp": "2025-12-09T09:46:47.908481+00:00",
        "meta_object_name": "GSAT0227 (GALILEO 30)",
        "meta_object_id": "2024-079C",
        "meta_epoch": "2025-12-08T08:44:01.424832",
        "meta_mean_motion": 1.70474656,
        "meta_eccentricity": 0.00032972,
        "meta_inclination": 54.9942,
        "meta_ra_of_asc_node": 106.4167,
        "meta_arg_of_pericenter": 114.0276,
        "meta_mean_anomaly": 245.9681,
        "meta_ephemeris_type": 0,
        "meta_classification_type": "U",
        "meta_norad_cat_id": 59600,
        "meta_element_set_no": 999,
        "meta_rev_at_epoch": 1011,
        "meta_bstar": 0,
        "meta_mean_motion_dot": 8e-08,
        "meta_mean_motion_ddot": 0,
        "tle_line1": "1 59600U 24079C   25342.36390538  .00000008  00000+0  00000+0 0  9991",
        "tle_line2": "2 59600  54.9942 106.4167 0003297 114.0276 245.9681  1.70474656 10110"
      },
      "geometry": {
        "type": "Point",
        "coordinates": [
          34.348400050908836,
          -53.64651206658363
        ]
      }
    },
    {
      "type": "Feature",
      "properties": {
        "norad_id": 61182,
        "name": "GSAT0232 (GALILEO 32)",
        "group": "galileo",
        "lat": 48.15309567715135,
        "lon": -4.244007927342648,
        "alt_km": 23217.352773519022,
        "timestamp": "2025-12-09T09:46:47.908492+00:00",
        "meta_object_name": "GSAT0232 (GALILEO 32)",
        "meta_object_id": "2024-167A",
        "meta_epoch": "2025-12-08T22:09:29.830752",
        "meta_mean_motion": 1.70473333,
        "meta_eccentricity": 0.00020304,
        "meta_inclination": 55.2421,
        "meta_ra_of_asc_node": 226.5356,
        "meta_arg_of_pericenter": 212.642,
        "meta_mean_anomaly": 325.1995,
        "meta_ephemeris_type": 0,
        "meta_classification_type": "U",
        "meta_norad_cat_id": 61182,
        "meta_element_set_no": 999,
        "meta_rev_at_epoch": 763,
        "meta_bstar": 0,
        "meta_mean_motion_dot": 1.4e-07,
        "meta_mean_motion_ddot": 0,
        "tle_line1": "1 61182U 24167A   25342.92326193  .00000014  00000+0  00000+0 0  9992",
        "tle_line2": "2 61182  55.2421 226.5356 0002030 212.6420 325.1995  1.70473333  7631"
      },
      "geometry": {
        "type": "Point",
        "coordinates": [
          -4.244007927342648,
          48.15309567715135
        ]
      }
    },
    {
      "type": "Feature",
      "properties": {
        "norad_id": 61183,
        "name": "GSAT0226 (GALILEO 31)",
        "group": "galileo",
        "lat": -37.38628309065285,
        "lon": 78.55613698018769,
        "alt_km": 23227.418865800566,
        "timestamp": "2025-12-09T09:46:47.908504+00:00",
        "meta_object_name": "GSAT0226 (GALILEO 31)",
        "meta_object_id": "2024-167B",
        "meta_epoch": "2025-12-08T04:07:13.318752",
        "meta_mean_motion": 1.70473397,
        "meta_eccentricity": 7.979e-05,
        "meta_inclination": 55.2409,
        "meta_ra_of_asc_node": 226.5616,
        "meta_arg_of_pericenter": 122.0254,
        "meta_mean_anomaly": 67.2121,
        "meta_ephemeris_type": 0,
        "meta_classification_type": "U",
        "meta_norad_cat_id": 61183,
        "meta_element_set_no": 999,
        "meta_rev_at_epoch": 759,
        "meta_bstar": 0,
        "meta_mean_motion_dot": 1.9e-07,
        "meta_mean_motion_ddot": 0,
        "tle_line1": "1 61183U 24167B   25342.17168193  .00000019  00000+0  00000+0 0  9999",
        "tle_line2": "2 61183  55.2409 226.5616 0000797 122.0254  67.2121  1.70473397  7594"
      },
      "geometry": {
        "type": "Point",
        "coordinates": [
          78.55613698018769,
          -37.38628309065285
        ]
      }
    }
  ]
}